INTELSAT 28 (IS-28)     
1 37392U 11016A   26087.75236094 -.00000243  00000+0  00000+0 0  9990
2 37392   1.5989  83.6015 0004540 285.2484  56.4492  1.00270916 52471
YAHSAT 1A               
1 37393U 11016B   26087.62643370  .00000082  00000+0  00000+0 0  9996
2 37393   0.0027 181.4430 0003183 191.8467  90.7531  1.00270898 41609
SBIRS GEO-1 (USA 230)   
1 37481U 11019A   26087.62634705  .00000084  00000+0  00000+0 0  9991
2 37481   4.3597  53.1046 0002280 313.5067  96.7123  1.00272346 54595
TELSTAR 14R             
1 37602U 11021A   26087.53222664 -.00000300  00000+0  00000+0 0  9998
2 37602   0.0242 255.8983 0002311 103.5286 315.1181  1.00271764 55020
GSAT-8                  
1 37605U 11022A   26087.76960767  .00000066  00000+0  00000+0 0  9998
2 37605   1.9238  82.7932 0006586 219.5300 215.9817  1.00273243 52419
ST-2                    
1 37606U 11022B   26087.84743802 -.00000231  00000+0  00000+0 0  9992
2 37606   0.0102 141.0920 0001861 231.2661 206.9756  1.00270903 54478
ZHONGXING-10            
1 37677U 11026A   26087.87475112 -.00000208  00000+0  00000+0 0  9997
2 37677   0.8393  85.1027 0002353 290.8932 210.7651  1.00271521 54194
SES-3                   
1 37748U 11035A   26087.66699389 -.00000121  00000+0  00000+0 0  9991
2 37748   1.1189  83.9325 0003560 283.8255 315.4314  1.00272412 53781
KAZSAT-2                
1 37749U 11035B   26087.84708965 -.00000217  00000+0  00000+0 0  9999
2 37749   0.0404 353.3081 0000603  78.6366 145.7800  1.00271675 52593
BEIDOU-2 IGSO-4         
1 37763U 11038A   26087.66258249 -.00000109  00000+0  00000+0 0  9993
2 37763  54.5871 166.4040 0156581 231.4212 120.2889  1.00260433 53838
ASTRA 1N                
1 37775U 11041A   26087.83380556  .00000100  00000+0  00000+0 0  9996
2 37775   0.1110  53.0069 0005018 338.0091 114.5746  1.00272773 43728
BSAT-3C (JCSAT-110R)    
1 37776U 11041B   26087.85177139 -.00000370  00000+0  00000+0 0  9990
2 37776   0.0480  48.8446 0000301  23.0815 170.9088  1.00273762 49667
PAKSAT-1R               
1 37779U 11042A   26087.83744556  .00000135  00000+0  00000+0 0  9993
2 37779   0.4811  85.2367 0002646 310.5194 129.8320  1.00274619 53677
SES-2                   
1 37809U 11049A   26087.81260275 -.00000215  00000+0  00000+0 0  9993
2 37809   0.0507  66.3395 0002855 296.6631  28.7488  1.00271853 53154
ARABSAT-5C              
1 37810U 11049B   26087.83397889  .00000104  00000+0  00000+0 0  9995
2 37810   0.0605  22.5078 0002807 348.4074 135.5549  1.00272297 53238
EUTELSAT 7 WEST A       
1 37816U 11051A   26087.85392104 -.00000080  00000+0  00000+0 0  9995
2 37816   0.0695  16.9639 0000954 124.3632 344.9952  1.00271593 53079
QUETZSAT 1              
1 37826U 11054A   26087.81468278 -.00000261  00000+0  00000+0 0  9992
2 37826   0.0390  47.9061 0002772 325.8070  28.7838  1.00272319 49060
