[{"OBJECT_NAME":"INTELSAT 28 (IS-28)","OBJECT_ID":"2011-016A","EPOCH":"2026-03-28T18:03:23.985216","MEAN_MOTION":1.00270916,"ECCENTRICITY":0.000454,"INCLINATION":1.5989,"RA_OF_ASC_NODE":83.6015,"ARG_OF_PERICENTER":285.2484,"MEAN_ANOMALY":56.4492,"EPHEMERIS_TYPE":0,"CLASSIFICATION_TYPE":"U","NORAD_CAT_ID":37392,"ELEMENT_SET_NO":999,"REV_AT_EPOCH":5247,"BSTAR":0,"MEAN_MOTION_DOT":-2.43e-6,"MEAN_MOTION_DDOT":0},{"OBJECT_NAME":"YAHSAT 1A","OBJECT_ID":"2011-016B","EPOCH":"2026-03-28T15:02:03.871680","MEAN_MOTION":1.00270898,"ECCENTRICITY":0.0003183,"INCLINATION":0.0027,"RA_OF_ASC_NODE":181.443,"ARG_OF_PERICENTER":191.8467,"MEAN_ANOMALY":90.7531,"EPHEMERIS_TYPE":0,"CLASSIFICATION_TYPE":"U","NORAD_CAT_ID":37393,"ELEMENT_SET_NO":999,"REV_AT_EPOCH":4160,"BSTAR":0,"MEAN_MOTION_DOT":8.2e-7,"MEAN_MOTION_DDOT":0},{"OBJECT_NAME":"SBIRS GEO-1 (USA 230)","OBJECT_ID":"2011-019A","EPOCH":"2026-03-28T15:01:56.385120","MEAN_MOTION":1.00272346,"ECCENTRICITY":0.000228,"INCLINATION":4.3597,"RA_OF_ASC_NODE":53.1046,"ARG_OF_PERICENTER":313.5067,"MEAN_ANOMALY":96.7123,"EPHEMERIS_TYPE":0,"CLASSIFICATION_TYPE":"U","NORAD_CAT_ID":37481,"ELEMENT_SET_NO":999,"REV_AT_EPOCH":5459,"BSTAR":0,"MEAN_MOTION_DOT":8.4e-7,"MEAN_MOTION_DDOT":0},{"OBJECT_NAME":"TELSTAR 14R","OBJECT_ID":"2011-021A","EPOCH":"2026-03-28T12:46:24.381696","MEAN_MOTION":1.00271764,"ECCENTRICITY":0.0002311,"INCLINATION":0.0242,"RA_OF_ASC_NODE":255.8983,"ARG_OF_PERICENTER":103.5286,"MEAN_ANOMALY":315.1181,"EPHEMERIS_TYPE":0,"CLASSIFICATION_TYPE":"U","NORAD_CAT_ID":37602,"ELEMENT_SET_NO":999,"REV_AT_EPOCH":5502,"BSTAR":0,"MEAN_MOTION_DOT":-3.0e-6,"MEAN_MOTION_DDOT":0},{"OBJECT_NAME":"GSAT-8","OBJECT_ID":"2011-022A","EPOCH":"2026-03-28T18:28:14.102688","MEAN_MOTION":1.00273243,"ECCENTRICITY":0.0006586,"INCLINATION":1.9238,"RA_OF_ASC_NODE":82.7932,"ARG_OF_PERICENTER":219.53,"MEAN_ANOMALY":215.9817,"EPHEMERIS_TYPE":0,"CLASSIFICATION_TYPE":"U","NORAD_CAT_ID":37605,"ELEMENT_SET_NO":999,"REV_AT_EPOCH":5241,"BSTAR":0,"MEAN_MOTION_DOT":6.6e-7,"MEAN_MOTION_DDOT":0},{"OBJECT_NAME":"ST-2","OBJECT_ID":"2011-022B","EPOCH":"2026-03-28T20:20:18.644928","MEAN_MOTION":1.00270903,"ECCENTRICITY":0.0001861,"INCLINATION":0.0102,"RA_OF_ASC_NODE":141.092,"ARG_OF_PERICENTER":231.2661,"MEAN_ANOMALY":206.9756,"EPHEMERIS_TYPE":0,"CLASSIFICATION_TYPE":"U","NORAD_CAT_ID":37606,"ELEMENT_SET_NO":999,"REV_AT_EPOCH":5447,"BSTAR":0,"MEAN_MOTION_DOT":-2.31e-6,"MEAN_MOTION_DDOT":0},{"OBJECT_NAME":"ZHONGXING-10","OBJECT_ID":"2011-026A","EPOCH":"2026-03-28T20:59:38.496768","MEAN_MOTION":1.00271521,"ECCENTRICITY":0.0002353,"INCLINATION":0.8393,"RA_OF_ASC_NODE":85.1027,"ARG_OF_PERICENTER":290.8932,"MEAN_ANOMALY":210.7651,"EPHEMERIS_TYPE":0,"CLASSIFICATION_TYPE":"U","NORAD_CAT_ID":37677,"ELEMENT_SET_NO":999,"REV_AT_EPOCH":5419,"BSTAR":0,"MEAN_MOTION_DOT":-2.08e-6,"MEAN_MOTION_DDOT":0},{"OBJECT_NAME":"SES-3","OBJECT_ID":"2011-035A","EPOCH":"2026-03-28T16:00:28.272096","MEAN_MOTION":1.00272412,"ECCENTRICITY":0.000356,"INCLINATION":1.1189,"RA_OF_ASC_NODE":83.9325,"ARG_OF_PERICENTER":283.8255,"MEAN_ANOMALY":315.4314,"EPHEMERIS_TYPE":0,"CLASSIFICATION_TYPE":"U","NORAD_CAT_ID":37748,"ELEMENT_SET_NO":999,"REV_AT_EPOCH":5378,"BSTAR":0,"MEAN_MOTION_DOT":-1.21e-6,"MEAN_MOTION_DDOT":0},{"OBJECT_NAME":"KAZSAT-2","OBJECT_ID":"2011-035B","EPOCH":"2026-03-28T20:19:48.545760","MEAN_MOTION":1.00271675,"ECCENTRICITY":6.03e-5,"INCLINATION":0.0404,"RA_OF_ASC_NODE":353.3081,"ARG_OF_PERICENTER":78.6366,"MEAN_ANOMALY":145.78,"EPHEMERIS_TYPE":0,"CLASSIFICATION_TYPE":"U","NORAD_CAT_ID":37749,"ELEMENT_SET_NO":999,"REV_AT_EPOCH":5259,"BSTAR":0,"MEAN_MOTION_DOT":-2.17e-6,"MEAN_MOTION_DDOT":0},{"OBJECT_NAME":"BEIDOU-2 IGSO-4","OBJECT_ID":"2011-038A","EPOCH":"2026-03-28T15:54:07.127136","MEAN_MOTION":1.00260433,"ECCENTRICITY":0.0156581,"INCLINATION":54.5871,"RA_OF_ASC_NODE":166.404,"ARG_OF_PERICENTER":231.4212,"MEAN_ANOMALY":120.2889,"EPHEMERIS_TYPE":0,"CLASSIFICATION_TYPE":"U","NORAD_CAT_ID":37763,"ELEMENT_SET_NO":999,"REV_AT_EPOCH":5383,"BSTAR":0,"MEAN_MOTION_DOT":-1.09e-6,"MEAN_MOTION_DDOT":0},{"OBJECT_NAME":"ASTRA 1N","OBJECT_ID":"2011-041A","EPOCH":"2026-03-28T20:00:40.800384","MEAN_MOTION":1.00272773,"ECCENTRICITY":0.0005018,"INCLINATION":0.111,"RA_OF_ASC_NODE":53.0069,"ARG_OF_PERICENTER":338.0091,"MEAN_ANOMALY":114.5746,"EPHEMERIS_TYPE":0,"CLASSIFICATION_TYPE":"U","NORAD_CAT_ID":37775,"ELEMENT_SET_NO":999,"REV_AT_EPOCH":4372,"BSTAR":0,"MEAN_MOTION_DOT":1.0e-6,"MEAN_MOTION_DDOT":0},{"OBJECT_NAME":"BSAT-3C (JCSAT-110R)","OBJECT_ID":"2011-041B","EPOCH":"2026-03-28T20:26:33.048096","MEAN_MOTION":1.00273762,"ECCENTRICITY":3.01e-5,"INCLINATION":0.048,"RA_OF_ASC_NODE":48.8446,"ARG_OF_PERICENTER":23.0815,"MEAN_ANOMALY":170.9088,"EPHEMERIS_TYPE":0,"CLASSIFICATION_TYPE":"U","NORAD_CAT_ID":37776,"ELEMENT_SET_NO":999,"REV_AT_EPOCH":4966,"BSTAR":0,"MEAN_MOTION_DOT":-3.7e-6,"MEAN_MOTION_DDOT":0},{"OBJECT_NAME":"PAKSAT-1R","OBJECT_ID":"2011-042A","EPOCH":"2026-03-28T20:05:55.296384","MEAN_MOTION":1.00274619,"ECCENTRICITY":0.0002646,"INCLINATION":0.4811,"RA_OF_ASC_NODE":85.2367,"ARG_OF_PERICENTER":310.5194,"MEAN_ANOMALY":129.832,"EPHEMERIS_TYPE":0,"CLASSIFICATION_TYPE":"U","NORAD_CAT_ID":37779,"ELEMENT_SET_NO":999,"REV_AT_EPOCH":5367,"BSTAR":0,"MEAN_MOTION_DOT":1.35e-6,"MEAN_MOTION_DDOT":0},{"OBJECT_NAME":"SES-2","OBJECT_ID":"2011-049A","EPOCH":"2026-03-28T19:30:08.877600","MEAN_MOTION":1.00271853,"ECCENTRICITY":0.0002855,"INCLINATION":0.0507,"RA_OF_ASC_NODE":66.3395,"ARG_OF_PERICENTER":296.6631,"MEAN_ANOMALY":28.7488,"EPHEMERIS_TYPE":0,"CLASSIFICATION_TYPE":"U","NORAD_CAT_ID":37809,"ELEMENT_SET_NO":999,"REV_AT_EPOCH":5315,"BSTAR":0,"MEAN_MOTION_DOT":-2.15e-6,"MEAN_MOTION_DDOT":0},{"OBJECT_NAME":"ARABSAT-5C","OBJECT_ID":"2011-049B","EPOCH":"2026-03-28T20:00:55.776096","MEAN_MOTION":1.00272297,"ECCENTRICITY":0.0002807,"INCLINATION":0.0605,"RA_OF_ASC_NODE":22.5078,"ARG_OF_PERICENTER":348.4074,"MEAN_ANOMALY":135.5549,"EPHEMERIS_TYPE":0,"CLASSIFICATION_TYPE":"U","NORAD_CAT_ID":37810,"ELEMENT_SET_NO":999,"REV_AT_EPOCH":5323,"BSTAR":0,"MEAN_MOTION_DOT":1.04e-6,"MEAN_MOTION_DDOT":0},{"OBJECT_NAME":"EUTELSAT 7 WEST A","OBJECT_ID":"2011-051A","EPOCH":"2026-03-28T20:29:38.777856","MEAN_MOTION":1.00271593,"ECCENTRICITY":9.54e-5,"INCLINATION":0.0695,"RA_OF_ASC_NODE":16.9639,"ARG_OF_PERICENTER":124.3632,"MEAN_ANOMALY":344.9952,"EPHEMERIS_TYPE":0,"CLASSIFICATION_TYPE":"U","NORAD_CAT_ID":37816,"ELEMENT_SET_NO":999,"REV_AT_EPOCH":5307,"BSTAR":0,"MEAN_MOTION_DOT":-8.0e-7,"MEAN_MOTION_DDOT":0},{"OBJECT_NAME":"QUETZSAT 1","OBJECT_ID":"2011-054A","EPOCH":"2026-03-28T19:33:08.592192","MEAN_MOTION":1.00272319,"ECCENTRICITY":0.0002772,"INCLINATION":0.039,"RA_OF_ASC_NODE":47.9061,"ARG_OF_PERICENTER":325.807,"MEAN_ANOMALY":28.7838,"EPHEMERIS_TYPE":0,"CLASSIFICATION_TYPE":"U","NORAD_CAT_ID":37826,"ELEMENT_SET_NO":999,"REV_AT_EPOCH":4906,"BSTAR":0,"MEAN_MOTION_DOT":-2.61e-6,"MEAN_MOTION_DDOT":0}]
